[
    {
        "Altitude(m)": 712168.6000651104,
        "Argument of Periapsis(deg)": 0.0022780242373254137,
        "Eccentricity": 0.0,
        "Inclination(deg)": 45.0,
        "Latitude(deg)": -31.194505062331462,
        "Longitude(deg)": 62.83917409454694,
        "Mean Anomaly(deg)": -46.7842566705038,
        "RAAN(deg)": 199.99784961170838,
        "Satellite Name": "Constellation 1 899",
        "Satellite Number": 899,
        "Semi-Major Axis(m)": 7083131.272910544,
        "Time(s)": 38
    },
    {
        "Altitude(m)": 712155.0816172111,
        "Argument of Periapsis(deg)": 0.002337972243570819,
        "Eccentricity": 0.0,
        "Inclination(deg)": 45.0,
        "Latitude(deg)": -31.160145003887113,
        "Longitude(deg)": 62.893400741456595,
        "Mean Anomaly(deg)": -46.72355553025382,
        "RAAN(deg)": 199.9977930225428,
        "Satellite Name": "Constellation 1 899",
        "Satellite Number": 899,
        "Semi-Major Axis(m)": 7083131.272910544,
        "Time(s)": 39
    },
    {
        "Altitude(m)": 712141.5575035977,
        "Argument of Periapsis(deg)": 0.0023979202498162246,
        "Eccentricity": 0.0,
        "Inclination(deg)": 45.0,
        "Latitude(deg)": -31.125758286865562,
        "Longitude(deg)": 62.94758543950127,
        "Mean Anomaly(deg)": -46.66285439000397,
        "RAAN(deg)": 199.99773643337724,
        "Satellite Name": "Constellation 1 899",
        "Satellite Number": 899,
        "Semi-Major Axis(m)": 7083131.272910544,
        "Time(s)": 40
    },
    {
        "Altitude(m)": 712128.027771991,
        "Argument of Periapsis(deg)": 0.00245786825606163,
        "Eccentricity": 0.0,
        "Inclination(deg)": 45.0,
        "Latitude(deg)": -31.091344965450684,
        "Longitude(deg)": 63.0017282435242,
        "Mean Anomaly(deg)": -46.60215324975412,
        "RAAN(deg)": 199.9976798442117,
        "Satellite Name": "Constellation 1 899",
        "Satellite Number": 899,
        "Semi-Major Axis(m)": 7083131.272910544,
        "Time(s)": 41
    },
    {
        "Altitude(m)": 712114.4924701009,
        "Argument of Periapsis(deg)": 0.002517816262307036,
        "Eccentricity": 0.0,
        "Inclination(deg)": 45.0,
        "Latitude(deg)": -31.056905093754313,
        "Longitude(deg)": 63.05582920845007,
        "Mean Anomaly(deg)": -46.541452109504256,
        "RAAN(deg)": 199.99762325504608,
        "Satellite Name": "Constellation 1 899",
        "Satellite Number": 899,
        "Semi-Major Axis(m)": 7083131.272910544,
        "Time(s)": 42
    },
    {
        "Altitude(m)": 712100.9516456759,
        "Argument of Periapsis(deg)": 0.0025777642685524413,
        "Eccentricity": 0.0,
        "Inclination(deg)": 45.0,
        "Latitude(deg)": -31.02243872581602,
        "Longitude(deg)": 63.10988838928443,
        "Mean Anomaly(deg)": -46.480750969254295,
        "RAAN(deg)": 199.99756666588053,
        "Satellite Name": "Constellation 1 899",
        "Satellite Number": 899,
        "Semi-Major Axis(m)": 7083131.272910544,
        "Time(s)": 43
    },
    {
        "Altitude(m)": 712087.4053464531,
        "Argument of Periapsis(deg)": 0.002637712274797847,
        "Eccentricity": 0.0,
        "Inclination(deg)": 45.0,
        "Latitude(deg)": -30.987945915603614,
        "Longitude(deg)": 63.16390567301552,
        "Mean Anomaly(deg)": -46.420049829004434,
        "RAAN(deg)": 199.99751007671495,
        "Satellite Name": "Constellation 1 899",
        "Satellite Number": 899,
        "Semi-Major Axis(m)": 7083131.272910544,
        "Time(s)": 44
    },
    {
        "Altitude(m)": 712073.8536201944,
        "Argument of Periapsis(deg)": 0.0026976602810432526,
        "Eccentricity": 0.0,
        "Inclination(deg)": 45.0,
        "Latitude(deg)": -30.953426717012,
        "Longitude(deg)": 63.217881451001894,
        "Mean Anomaly(deg)": -46.35934868875447,
        "RAAN(deg)": 199.9974534875494,
        "Satellite Name": "Constellation 1 899",
        "Satellite Number": 899,
        "Semi-Major Axis(m)": 7083131.272910544,
        "Time(s)": 45
    },
    {
        "Altitude(m)": 712060.2965146699,
        "Argument of Periapsis(deg)": 0.0027576082872886585,
        "Eccentricity": 0.0,
        "Inclination(deg)": 45.0,
        "Latitude(deg)": -30.918881183864716,
        "Longitude(deg)": 63.27181561038932,
        "Mean Anomaly(deg)": -46.298647548504604,
        "RAAN(deg)": 199.99739689838384,
        "Satellite Name": "Constellation 1 899",
        "Satellite Number": 899,
        "Semi-Major Axis(m)": 7083131.272910544,
        "Time(s)": 46
    },
    {
        "Altitude(m)": 712046.7340776516,
        "Argument of Periapsis(deg)": 0.0028175562935340644,
        "Eccentricity": 0.0,
        "Inclination(deg)": 45.0,
        "Latitude(deg)": -30.88430936991271,
        "Longitude(deg)": 63.32570820649853,
        "Mean Anomaly(deg)": -46.23794640825464,
        "RAAN(deg)": 199.99734030921823,
        "Satellite Name": "Constellation 1 899",
        "Satellite Number": 899,
        "Semi-Major Axis(m)": 7083131.272910544,
        "Time(s)": 47
    },
    {
        "Altitude(m)": 712033.1663569328,
        "Argument of Periapsis(deg)": 0.00287750429977947,
        "Eccentricity": 0.0,
        "Inclination(deg)": 45.0,
        "Latitude(deg)": -30.849711328835102,
        "Longitude(deg)": 63.379559294726825,
        "Mean Anomaly(deg)": -46.17724526800478,
        "RAAN(deg)": 199.99728372005268,
        "Satellite Name": "Constellation 1 899",
        "Satellite Number": 899,
        "Semi-Major Axis(m)": 7083131.272910544,
        "Time(s)": 48
    },
    {
        "Altitude(m)": 712019.5934003199,
        "Argument of Periapsis(deg)": 0.002937452306024875,
        "Eccentricity": 0.0,
        "Inclination(deg)": 45.0,
        "Latitude(deg)": -30.81508711423864,
        "Longitude(deg)": 63.433368930547886,
        "Mean Anomaly(deg)": -46.11654412775495,
        "RAAN(deg)": 199.9972271308871,
        "Satellite Name": "Constellation 1 899",
        "Satellite Number": 899,
        "Semi-Major Axis(m)": 7083131.272910544,
        "Time(s)": 49
    },
    {
        "Altitude(m)": 712006.01525561,
        "Argument of Periapsis(deg)": 0.0029974003122702807,
        "Eccentricity": 0.0,
        "Inclination(deg)": 45.0,
        "Latitude(deg)": -30.78043677965808,
        "Longitude(deg)": 63.4871371695105,
        "Mean Anomaly(deg)": -46.05584298750506,
        "RAAN(deg)": 199.99717054172154,
        "Satellite Name": "Constellation 1 899",
        "Satellite Number": 899,
        "Semi-Major Axis(m)": 7083131.272910544,
        "Time(s)": 50
    },
    {
        "Altitude(m)": 711992.431970633,
        "Argument of Periapsis(deg)": 0.0030573483185156866,
        "Eccentricity": 0.0,
        "Inclination(deg)": 45.0,
        "Latitude(deg)": -30.745760378555993,
        "Longitude(deg)": 63.54086406723844,
        "Mean Anomaly(deg)": -45.99514184725513,
        "RAAN(deg)": 199.997113952556,
        "Satellite Name": "Constellation 1 899",
        "Satellite Number": 899,
        "Semi-Major Axis(m)": 7083131.272910544,
        "Time(s)": 51
    },
    {
        "Altitude(m)": 711978.8435932178,
        "Argument of Periapsis(deg)": 0.003117296324761092,
        "Eccentricity": 0.0,
        "Inclination(deg)": 45.0,
        "Latitude(deg)": -30.71105796432309,
        "Longitude(deg)": 63.5945495113321,
        "Mean Anomaly(deg)": -45.93444070700513,
        "RAAN(deg)": 199.99705736339038,
        "Satellite Name": "Constellation 1 899",
        "Satellite Number": 899,
        "Semi-Major Axis(m)": 7083131.272910544,
        "Time(s)": 52
    },
    {
        "Altitude(m)": 711965.2501711943,
        "Argument of Periapsis(deg)": 0.0031772443310064975,
        "Eccentricity": 0.0,
        "Inclination(deg)": 45.0,
        "Latitude(deg)": -30.67632959027761,
        "Longitude(deg)": 63.6481938937557,
        "Mean Anomaly(deg)": -45.8737395667553,
        "RAAN(deg)": 199.99700077422483,
        "Satellite Name": "Constellation 1 899",
        "Satellite Number": 899,
        "Semi-Major Axis(m)": 7083131.272910544,
        "Time(s)": 53
    },
    {
        "Altitude(m)": 711951.6517524205,
        "Argument of Periapsis(deg)": 0.0032371923372519038,
        "Eccentricity": 0.0,
        "Inclination(deg)": 45.0,
        "Latitude(deg)": -30.641575309665964,
        "Longitude(deg)": 63.70179710225536,
        "Mean Anomaly(deg)": -45.813038426505436,
        "RAAN(deg)": 199.99694418505925,
        "Satellite Name": "Constellation 1 899",
        "Satellite Number": 899,
        "Semi-Major Axis(m)": 7083131.272910544,
        "Time(s)": 54
    },
    {
        "Altitude(m)": 711938.0483847543,
        "Argument of Periapsis(deg)": 0.0032971403434973088,
        "Eccentricity": 0.0,
        "Inclination(deg)": 45.0,
        "Latitude(deg)": -30.606795175662413,
        "Longitude(deg)": 63.75535919274584,
        "Mean Anomaly(deg)": -45.752337286255454,
        "RAAN(deg)": 199.9968875958937,
        "Satellite Name": "Constellation 1 899",
        "Satellite Number": 899,
        "Semi-Major Axis(m)": 7083131.272910544,
        "Time(s)": 55
    },
    {
        "Altitude(m)": 711924.4401160551,
        "Argument of Periapsis(deg)": 0.0033570883497427146,
        "Eccentricity": 0.0,
        "Inclination(deg)": 45.0,
        "Latitude(deg)": -30.57198924136934,
        "Longitude(deg)": 63.808880221212334,
        "Mean Anomaly(deg)": -45.691636146005614,
        "RAAN(deg)": 199.9968310067281,
        "Satellite Name": "Constellation 1 899",
        "Satellite Number": 899,
        "Semi-Major Axis(m)": 7083131.272910544,
        "Time(s)": 56
    }
]